satname,norad_id,inclination_deg,eccentricity,mean_motion_rev_per_day,perigee_km,apogee_km,l1,l2
STARLINK-1143,45179,53.0481,0.0007483,15.62186024,376.2857396488016,386.40197870264365,1 45179U 20012B   26065.91668981  .00078830  00000+0  87657-3 0  9999,2 45179  53.0481 343.4668 0007483  89.6267 120.1570 15.62186024  5986
STARLINK-1202,45183,53.1623,0.0001274,15.30185144,474.3863044115715,476.1325498212009,1 45183U 20012F   26065.29214990 -.00000916  00000+0 -18807-4 0  9996,2 45183  53.1623  55.0341 0001274  79.8056 280.3089 15.30185144334439
STARLINK-1216,45185,53.1612,0.0001393,15.30183522,474.3095914017231,476.21894899560084,1 45185U 20012H   26065.28266891 -.00001162  00000+0 -27118-4 0  9993,2 45185  53.1612  55.0538 0001393  92.3959 267.7202 15.30183522334378
STARLINK-1225,45187,53.1603,0.0001595,15.30208766,474.0957903679673,476.2820013287437,1 45187U 20012K   26065.34489066  .00008383  00000+0  29476-3 0  9991,2 45187  53.1603  55.2056 0001595 104.6818 255.4360 15.30208766334425
STARLINK-1230,45189,53.161,0.0001155,15.30179433,474.48491020504844,476.0680487188047,1 45189U 20012M   26065.35437220  .00002650  00000+0  10162-3 0  9992,2 45189  53.1610  55.2227 0001155  76.4696 283.6434 15.30179433331652
STARLINK-1234,45190,53.0444,0.0003569,15.61589053,380.6533715940759,385.47951861319143,1 45190U 20012N   26065.91668981 -.00053887  00000+0 -61363-3 0  9995,2 45190  53.0444 338.8516 0003569 303.6300 148.2338 15.61589053  5976
STARLINK-1269,45197,53.1614,0.0001549,15.30201111,474.150168453878,476.2733358973028,1 45197U 20012V   26065.35118561  .00004454  00000+0  16240-3 0  9992,2 45197  53.1614  55.0926 0001549 112.5922 247.5243 15.30201111334402
STARLINK-1154,45198,53.0493,0.000718,15.45403729,425.30367238719737,435.0804329067978,1 45198U 20012W   26065.32384174  .00096913  00000+0  19777-2 0  9993,2 45198  53.0493  26.0551 0007180  75.5573 284.6229 15.45403729334777
STARLINK-1199,45201,53.1581,0.0001817,15.29342203,476.5317740491655,479.0232133761792,1 45201U 20012Z   26065.18785426  .00001003  00000+0  47102-4 0  9998,2 45201  53.1581  40.0821 0001817 122.8275 237.2901 15.29342203334629
STARLINK-1209,45206,53.0489,0.0005789,15.50291693,411.9406709391096,419.80677655506406,1 45206U 20012AE  26065.06573779  .00099926  00000+0  17202-2 0  9993,2 45206  53.0489 350.8534 0005789 267.5057  92.5288 15.50291693334350
STARLINK-1231,45212,53.0527,0.000429,15.20725479,500.69876717174066,506.603341322284,1 45212U 20012AL  26065.32870025  .00050867  00000+0  22817-2 0  9992,2 45212  53.0527  31.2225 0004290  68.5487 291.5965 15.20725479334713
STARLINK-1271,45217,53.1613,0.000144,15.30165351,474.3316294441056,476.30542463589336,1 45217U 20012AR  26065.91668981  .00046759  00000+0  15827-2 0  9996,2 45217  53.1613  36.8411 0001440  88.7954 329.0042 15.30165351  5839
STARLINK-1191,45222,53.1609,0.0001316,15.30191041,474.3399148563203,476.14372416161495,1 45222U 20012AW  26065.27309396 -.00008490  00000+0 -27493-3 0  9998,2 45222  53.1609  14.6963 0001316  87.2609 272.8543 15.30191041334997
STARLINK-1212,45223,53.051,0.0006121,15.51458267,408.31106165642086,416.6241197963873,1 45223U 20012AX  26065.91668981  .00080103  00000+0  13277-2 0  9991,2 45223  53.0510   3.4305 0006121 102.6391  55.2155 15.51458267  5944
STARLINK-1215,45225,53.1624,0.0001221,15.30198559,474.3825771759384,476.0561668019782,1 45225U 20012AZ  26065.84716315  .00002161  00000+0  85058-4 0  9996,2 45225  53.1624  11.5074 0001221  78.4309 281.6829 15.30198559335043
STARLINK-1221,45227,53.0654,0.0003017,15.41761039,438.8544684126473,442.96908244374026,1 45227U 20012BB  26065.02234466  .00018756  00000+0  44521-3 0  9996,2 45227  53.0654 286.9918 0003017  42.8376 317.2863 15.41761039336143
STARLINK-1222,45228,53.0585,0.0004152,15.49255631,416.0802440384614,421.72450553528324,1 45228U 20012BC  26065.13756518  .00029035  00000+0  52900-3 0  9998,2 45228  53.0585 359.8390 0004152  71.8105 288.3355 15.49255631335073
STARLINK-1226,45229,53.1613,0.0001636,15.30218733,474.0379373806327,476.28033587653863,1 45229U 20012BD  26065.87669101  .00001567  00000+0  64992-4 0  9996,2 45229  53.1613  11.6833 0001636 109.3161 250.8017 15.30218733334985
STARLINK-1227,45230,53.162,0.0001265,15.31028857,471.8747322719646,473.6080044991659,1 45230U 20012BE  26065.83450346  .00000758  00000+0  36877-4 0  9995,2 45230  53.1620  12.1454 0001265  92.0410 268.0736 15.31028857335092
STARLINK-1246,45235,53.1613,0.0001306,15.30187096,474.35854589593237,476.148651520316,1 45235U 20012BK  26065.22998387  .00000195  00000+0  18725-4 0  9992,2 45235  53.1613  55.3184 0001306  98.0619 262.0530 15.30187096334445
STARLINK-1270,45237,53.051,0.0003862,15.46471519,424.4295674663599,429.68589987864834,1 45237U 20012BM  26065.80401048  .00119854  00000+0  23504-2 0  9993,2 45237  53.0510   1.3372 0003862  82.1349 278.0095 15.46471519335228
STARLINK-1279,45360,53.0416,9.23e-05,15.56672825,396.6689163702167,397.91966098610646,1 45360U 20019A   26065.55172469  .00071862  00000+0  98756-3 0  9999,2 45360  53.0416 113.9037 0000923 136.9858 223.1225 15.56672825330186
STARLINK-1301,45361,53.0412,0.0001323,15.64571064,373.57928468021055,375.3660251949059,1 45361U 20019B   26065.91668981 -.00018924  00000+0 -18726-3 0  9990,2 45361  53.0412 117.6779 0001323 186.9388 189.8695 15.64571064  5938
STARLINK-1262,45366,53.1393,0.0001083,15.25806494,487.62111206859663,489.108396348558,1 45366U 20019G   26065.91668981  .00782494  00000+0  27977-1 0  9999,2 45366  53.1393 177.9413 0001083  80.1648 243.1682 15.25806494  5837
STARLINK-1273,45367,53.0527,0.0001364,15.4370891,434.2449926736026,436.1036640039738,1 45367U 20019H   26065.29802695  .00047355  00000+0  10356-2 0  9997,2 45367  53.0527 170.9407 0001364 345.5919  14.5047 15.43708910329370
STARLINK-1276,45368,53.0544,0.0001769,15.06392404,546.009740403817,548.4599369603438,1 45368U 20019J   26065.30098230  .00001319  00000+0  10744-3 0  9994,2 45368  53.0544 181.8314 0001769  79.5112 280.6077 15.06392404329225
STARLINK-1277,45369,53.052,0.000288,15.48014338,420.5768182106631,424.49400551989766,1 45369U 20019K   26064.56350784  .00082869  00000+0  15506-2 0  9996,2 45369  53.0520 172.3688 0002880 359.3868   0.7135 15.48014338329297
STARLINK-1281,45370,53.1435,0.0001261,15.26688327,484.85485280056764,486.5859176331187,1 45370U 20019L   26065.91668981  .01332627  00000+0  45570-1 0  9993,2 45370  53.1435 178.1298 0001261  78.9405 239.9623 15.26688327  5682
STARLINK-1300,45374,53.1554,0.0001075,15.29403775,476.856494073113,478.3304761274094,1 45374U 20019Q   26065.91668981 -.00097271  00000+0 -33977-2 0  9990,2 45374  53.1554 178.1016 0001075  91.8758 122.8294 15.29403775  5830
STARLINK-1302,45375,53.0533,0.0002665,15.53404187,404.9872470925984,408.6036160786334,1 45375U 20019R   26065.91668981  .00071552  00000+0  11084-2 0  9998,2 45375  53.0533 165.1351 0002665 286.4982 306.8874 15.53404187  5947
STARLINK-1304,45376,53.0538,0.0001893,15.47455178,422.88587993714646,425.4612347141501,1 45376U 20019S   26064.51302360  .00099577  00000+0  18941-2 0  9996,2 45376  53.0538 169.4747 0001893 299.5443  60.5375 15.47455178329328
STARLINK-1305,45377,53.0448,0.0002627,15.52228461,408.4378347130496,412.0044380779109,1 45377U 20019T   26065.00002315  .00109371  00000+0  17552-2 0  9990,2 45377  53.0448 150.0365 0002627 103.0454  27.7664 15.52228461  5919
STARLINK-1319,45379,53.0443,0.0001961,15.64878681,372.2636804347603,374.9117068596088,1 45379U 20019V   26065.91668981 -.00000375  00000+0  17719-5 0  9992,2 45379  53.0443 143.3234 0001961  57.2108 256.7641 15.64878681  5863
STARLINK-1266,45383,53.0504,0.0003654,15.44896911,429.19268811393977,434.16930310513,1 45383U 20019Z   26065.48947376  .00090969  00000+0  18919-2 0  9994,2 45383  53.0504 148.2083 0003654   1.5734 358.5282 15.44896911329708
STARLINK-1267,45384,53.0517,0.000304,15.49128681,417.20729857257993,421.3401242851287,1 45384U 20019AA  26065.58818172  .00118585  00000+0  21210-2 0  9990,2 45384  53.0517 141.8741 0003040 251.3889 108.6789 15.49128681329802
STARLINK-1272,45386,53.0437,0.0002105,15.55808653,398.3762367452464,401.22974948234696,1 45386U 20019AC  26065.91668981  .00105302  00000+0  14846-2 0  9990,2 45386  53.0437 123.2119 0002105 123.2868 294.1500 15.55808653  5964
STARLINK-1274,45387,53.0274,0.0004033,15.46447398,424.38393343795815,429.87306058785,1 45387U 20019AD  26065.42681296  .00089196  00000+0  17596-2 0  9998,2 45387  53.0274 118.5222 0004033 226.0963 133.9710 15.46447398330112
STARLINK-1280,45388,53.0432,0.0001239,15.65084334,372.15976156192755,373.8326923755694,1 45388U 20019AE  26065.58602813  .00067538  00000+0  67270-3 0  9995,2 45388  53.0432 137.7280 0001239  95.9926 264.1230 15.65084334329854
STARLINK-1283,45389,53.0435,0.0003937,15.55594253,397.7570390153769,403.09447933195133,1 45389U 20019AF  26065.38030519  .00110896  00000+0  15741-2 0  9993,2 45389  53.0435 126.0225 0003937 268.2347  91.8213 15.55594253330018
STARLINK-1284,45390,53.048,0.0003186,15.51249734,410.91246618461173,415.2398272016844,1 45390U 20019AG  26065.91668981  .00062387  00000+0  10463-2 0  9991,2 45390  53.0480 144.3258 0003186   4.6821  41.6632 15.51249734  5906
STARLINK-1297,45395,53.0477,0.0004175,15.5353159,403.59192341500693,409.25703224899644,1 45395U 20019AM  26065.91668981  .00067688  00000+0  10445-2 0  9995,2 45395  53.0477 144.0843 0004175   7.8337 313.7946 15.53531590  5952
STARLINK-1307,45397,53.0552,0.0001727,15.49821056,416.0755240898061,418.4226504443477,1 45397U 20019AP  26065.39418774  .00025496  00000+0  45667-3 0  9998,2 45397  53.0552 146.5539 0001727  38.4029 321.7102 15.49821056329546
STARLINK-1255,45399,53.0413,0.0001642,15.51266072,411.9133536773379,414.14357241540074,1 45399U 20019AR  26065.91668981  .00107636  00000+0  17884-2 0  9991,2 45399  53.0413 116.0801 0001642 308.0727  38.0139 15.51266072  5953
